GLOBALSTAR M068         
1 32266U 07048D   25231.09320905 -.00000103  00000+0  44506-5 0  9997
2 32266  51.9879 110.4979 0000611 319.7114 187.1707 12.62826529825790
GLOBALSTAR M079         
1 37188U 10054A   25231.53350376 -.00000084  00000+0  10798-3 0  9992
2 37188  52.0051 306.9533 0000753 100.0257   3.9303 12.62266043685134
GLOBALSTAR M074         
1 37189U 10054B   25230.94137941 -.00000078  00000+0  14399-3 0  9992
2 37189  52.0033 308.0699 0000641 124.1838  46.3097 12.62270710684988
GLOBALSTAR M076         
1 37190U 10054C   25230.53720803 -.00000086  00000+0  97340-4 0  9991
2 37190  52.0042 309.4762 0000831 114.1302 259.3570 12.62264521684651
GLOBALSTAR M077         
1 37191U 10054D   25231.41381730 -.00000072  00000+0  17672-3 0  9996
2 37191  52.0055 263.6744 0000351 119.0431 345.0687 12.62323012685879
GLOBALSTAR M075         
1 37192U 10054E   25230.64909443 -.00000085  00000+0  10198-3 0  9998
2 37192  51.9976 351.3552 0000736 102.8715 359.7545 12.62266710684262
GLOBALSTAR M073         
1 37193U 10054F   25231.10561492 -.00000070  00000+0  18617-3 0  9997
2 37193  52.0043 263.8336 0000497 107.2416 271.1378 12.62261998685836
GLOBALSTAR M083         
1 37739U 11033A   25231.13249969 -.00000113  00000+0 -50518-4 0  9992
2 37739  51.9842 212.3963 0000378  55.2916  24.0127 12.62274936655163
GLOBALSTAR M088         
1 37740U 11033B   25231.12484970 -.00000103  00000+0  27613-5 0  9995
2 37740  52.0208 118.1137 0000611  52.8867 112.2540 12.62267239650631
GLOBALSTAR M091         
1 37741U 11033C   25230.88685905 -.00000104  00000+0 -10493-5 0  9999
2 37741  51.9992  82.2474 0000879  55.3724  48.8823 12.62269726651105
GLOBALSTAR M085         
1 37742U 11033D   25231.40919456 -.00000098  00000+0  30753-4 0  9991
2 37742  52.0142  31.6848 0000893  72.7020 306.3178 12.62264006652175
GLOBALSTAR M081         
1 37743U 11033E   25231.43566602 -.00000098  00000+0  33512-4 0  9992
2 37743  51.9971  34.3856 0001011  83.9319 294.1440 12.62267616652212
GLOBALSTAR M089         
1 37744U 11033F   25231.48804690 -.00000106  00000+0 -11698-4 0  9992
2 37744  51.9957 348.4430 0000832 121.2768 315.9251 12.62265666652932
GLOBALSTAR M084         
1 38040U 11080A   25231.18546161 -.00000083  00000+0  11693-3 0  9994
2 38040  51.9985 216.6853 0000371 129.6045 311.3465 12.62268108630900
GLOBALSTAR M080         
1 38041U 11080B   25231.15682681 -.00000087  00000+0  91062-4 0  9993
2 38041  52.0036 218.3868 0000376 335.9679 104.0545 12.62268380630880
GLOBALSTAR M082         
1 38042U 11080C   25230.55879582 -.00000108  00000+0 -25955-4 0  9998
2 38042  52.0065 175.6735 0000592   6.4705 165.6085 12.62267865631375
GLOBALSTAR M092         
1 38043U 11080D   25230.84883999 -.00000096  00000+0  42239-4 0  9997
2 38043  52.0075 265.1741 0000316 122.4622  47.6811 12.62265746629863
GLOBALSTAR M090         
1 38044U 11080E   25230.58481875 -.00000106  00000+0 -13348-4 0  9998
2 38044  52.0112 169.4511 0000578  44.6069 126.1518 12.62261628631536
GLOBALSTAR M086         
1 38045U 11080F   25231.23894780 -.00000102  00000+0  10153-4 0  9991
2 38045  51.9888 167.8811 0001433  90.6314  56.8265 12.62276162631622
GLOBALSTAR M097         
1 39072U 13005A   25230.83755636 -.00000107  00000+0 -17005-4 0  9991
2 39072  52.0042  83.7165 0000930  69.4383 290.6584 12.62265591578723
GLOBALSTAR M093         
1 39073U 13005B   25230.89064998 -.00000116  00000+0 -66842-4 0  9995
2 39073  52.0104  76.7854 0001153  62.5516 297.5467 12.62263766578683
GLOBALSTAR M094         
1 39074U 13005C   25230.65303113 -.00000103  00000+0  52037-5 0  9992
2 39074  51.9985 351.9277 0000885  87.6247 272.4721 12.62268890580261
GLOBALSTAR M096         
1 39075U 13005D   25231.37876013 -.00000098  00000+0  30990-4 0  9993
2 39075  52.0083  38.2794 0000979  73.5979 286.4995 12.62266184579622
GLOBALSTAR M078         
1 39076U 13005E   25230.87744988 -.00000090  00000+0  79044-4 0  9998
2 39076  51.9867 124.2334 0000912 357.8968   2.1894 12.62261336577836
GLOBALSTAR M095         
1 39077U 13005F   25231.06177188 -.00000096  00000+0  45284-4 0  9998
2 39077  52.0075 120.8462 0001007  33.9700 326.1231 12.62259407578073
GLOBALSTAR M087         
1 52888U 22064A   25230.83906591 -.00000081  00000+0  12955-3 0  9992
2 52888  51.9977 262.9487 0000297  76.2026 283.8873 12.62300967152957
